{"fetched_at":"2026-04-07T13:20:42Z","count":16169,"tles":[{"name":"KL-ALPHA A","line1":"1 44785U 19077A   26097.13589287  .00000033  00000+0  29190-4 0  9999","line2":"2 44785  88.9219 230.3343 0009731 324.6692  35.3816 13.56034810316105","category":"Other"},{"name":"ICEYE-X25","line1":"1 56963U 23084AH  26097.19016331  .00061814  00000+0  92703-3 0  9997","line2":"2 56963  97.5802 238.9036 0004388 192.9539 167.1602 15.54717599156923","category":"Other"},{"name":"ORBCOMM FM114","line1":"1 41179U 15081A   26097.02407858  .00000657  00000+0  17546-3 0  9998","line2":"2 41179  47.0065 338.4342 0002570 242.5506 117.5119 14.58778821547362","category":"Other"},{"name":"SNUGLITE-II","line1":"1 52899U 22065F   26096.96393685  .00001481  00000+0  29046-3 0  9997","line2":"2 52899  98.2089 241.9674 0006405 242.3468 117.7085 14.64211492200575","category":"Other"},{"name":"KINEIS-4C","line1":"1 63301U 25056B   26096.01943108  .00000638  00000+0  10868-3 0  9992","line2":"2 63301  97.9611 222.0045 0002877 142.7016 217.4392 14.72304179 56511","category":"Other"},{"name":"SJ-9A","line1":"1 38860U 12056A   26097.16325070  .00001645  00000+0  19632-3 0  9996","line2":"2 38860  97.6656  71.7183 0026811 128.9747 231.3863 14.85314468689046","category":"Other"},{"name":"SL-14 R/B","line1":"1 13553U 82092B   26097.11365128  .00000494  00000+0  52617-4 0  9990","line2":"2 13553  82.5648 114.8062 0019682 202.7211 217.3396 14.86693746333155","category":"Other"},{"name":"CZ-2C R/B","line1":"1 31114U 07010B   26097.04689462  .00000179  00000+0  10122-3 0  9996","line2":"2 31114  98.4007 208.9083 0058483 210.7625 149.0120 14.20257436983743","category":"Other"},{"name":"OKEAN-O","line1":"1 25860U 99039A   26097.10834263  .00000756  00000+0  10586-3 0  9992","line2":"2 25860  97.9384 156.7025 0000969 108.6325 251.4992 14.80383846438594","category":"Other"},{"name":"SL-3 R/B","line1":"1 05118U 71028B   26097.15606120  .00052838  00000+0  55720-3 0  9995","line2":"2 05118  81.2382  16.8078 0015715 171.8806 188.2706 15.63866462993113","category":"Other"},{"name":"MIDORI II (ADEOS-II)","line1":"1 27597U 02056A   26097.15540980  .00000377  00000+0  16579-3 0  9996","line2":"2 27597  98.7818  55.8388 0000256  27.7733 332.3462 14.29308419214362","category":"Other"},{"name":"SL-12 R/B(2)","line1":"1 15772U 85042D   26097.10381056  .00000086  00000+0  60074-4 0  9993","line2":"2 15772  71.1103  27.6962 0032900  80.9633 289.1660 14.21991249118433","category":"Other"},{"name":"LANDSAT 7","line1":"1 25682U 99020A   26097.16926806  .00000570  00000+0  11769-3 0  9993","line2":"2 25682  97.8604 104.0588 0001256  79.3021  46.0281 14.63857090435456","category":"Other"},{"name":"SL-8 R/B","line1":"1 15483U 85006B   26096.70681928  .00000361  00000+0  12815-3 0  9993","line2":"2 15483  74.0462 209.5929 0017394 118.8496 346.1968 14.37804361158056","category":"Other"},{"name":"SL-14 R/B","line1":"1 17567U 87024B   26097.18658044  .00000614  00000+0  66996-4 0  9997","line2":"2 17567  82.5269  65.9729 0018649 161.6969 198.4923 14.86162617 92362","category":"Other"},{"name":"SL-16 R/B","line1":"1 19650U 88102B   26097.15884439  .00000303  00000+0  17706-3 0  9995","line2":"2 19650  70.9975  91.5926 0015552 320.2811  39.7172 14.16157201930927","category":"Other"},{"name":"METEOR-M 1","line1":"1 35865U 09049A   26097.13625897  .00000137  00000+0  80081-4 0  9995","line2":"2 35865  98.7324  60.1474 0002818 133.8851 226.2560 14.23140498859148","category":"Weather"},{"name":"SL-8 R/B","line1":"1 03230U 68040B   26096.85880744  .00004476  00000+0  32952-3 0  9997","line2":"2 03230  74.0305 256.1212 0023215  68.1665 292.1990 15.03472073 94246","category":"Other"},{"name":"SL-3 R/B","line1":"1 10114U 77057B   26097.13504967  .00014789  00000+0  30091-3 0  9996","line2":"2 10114  97.5809 270.3315 0007408 171.2241 188.9139 15.46361268672720","category":"Other"},{"name":"SL-14 R/B","line1":"1 16882U 86055B   26097.01656468  .00000551  00000+0  60693-4 0  9997","line2":"2 16882  82.5169 100.0402 0017549 235.7631 149.0688 14.85670539123570","category":"Other"},{"name":"GAOFEN-6","line1":"1 43484U 18048A   26097.18896039  .00000407  00000+0  65139-4 0  9990","line2":"2 43484  97.7813 162.4553 0013304  51.5559 308.6843 14.76648832422916","category":"Other"},{"name":"GPS BIIF-1  (PRN 25)","line1":"1 36585U 10022A   26097.16384153  .00000004  00000+0  00000+0 0  9999","line2":"2 36585  54.2815 211.4223 0126928  66.0395 297.2579  2.00558989116179","category":"GPS"},{"name":"ISS (ZVEZDA)","line1":"1 26400U 00037A   26097.03736053  .00008175  00000+0  15735-3 0  9997","line2":"2 26400  51.6332 292.2025 0006344 281.0633  78.9642 15.48812043560504","category":"ISS"},{"name":"SL-3 R/B","line1":"1 13068U 82013B   26097.17881284  .00004014  00000+0  17195-3 0  9999","line2":"2 13068  81.1718 127.3721 0023558  84.7047 275.6872 15.22282435408689","category":"Other"},{"name":"GAOFEN-3","line1":"1 41727U 16049A   26097.17976978  .00000111  00000+0  46830-4 0  9996","line2":"2 41727  98.4044 106.0307 0001554  69.8283 290.3073 14.42223784508419","category":"Other"},{"name":"KEPLER-19","line1":"1 51051U 22002BV  25089.27039157  .07293689  24278-5  15311-2 0  9991","line2":"2 51051  97.3060 164.6034 0011241 286.9785  73.0277 16.30805160178481","category":"Other"},{"name":"COSMOS 1536","line1":"1 14699U 84013A   26097.21546225  .00008265  00000+0  33641-3 0  9996","line2":"2 14699  82.5429  79.4779 0014487 174.1040 186.0371 15.24254685276963","category":"Other"},{"name":"SL-16 R/B","line1":"1 25861U 99039B   26097.12906094  .00000676  00000+0  92364-4 0  9993","line2":"2 25861  97.9906 156.1745 0015285 160.2905 199.8901 14.81773474441076","category":"Other"},{"name":"H-2A R/B","line1":"1 27601U 02056E   26097.17038594  .00000391  00000+0  15110-3 0  9993","line2":"2 27601  98.3252  56.4605 0071407  76.9399 293.5520 14.33782256218193","category":"Other"},{"name":"SL-14 R/B","line1":"1 11267U 79011B   26097.01775222  .00000836  00000+0  79979-4 0  9996","line2":"2 11267  82.5224  69.6822 0015118 327.9444  32.0854 14.91949466533000","category":"Other"},{"name":"SHIJIAN-16 (SJ-16)","line1":"1 39358U 13057A   26097.18651825  .00001444  00000+0  14333-3 0  9993","line2":"2 39358  74.9704 131.1395 0015436  38.7740 321.4553 14.92448647675754","category":"Other"},{"name":"CZ-4B R/B","line1":"1 25732U 99025C   26097.08982044  .00000069  00000+0  54047-4 0  9991","line2":"2 25732  98.6566 140.6908 0035981 262.9287 124.6348 14.18271344392198","category":"Other"},{"name":"SERT 2","line1":"1 04327U 70009A   26097.11188837  .00000057  00000+0  13427-3 0  9994","line2":"2 04327  99.2795  38.6561 0005774  91.3560 279.3126 13.58733169783751","category":"Other"},{"name":"GPS BIIR-07 (PRN 18)","line1":"1 26690C 01004A   08002.69761574  .00000000  00000-0  00000-0 0 43632","line2":"2 26690  54.4316 301.6580 0090219 216.9776 330.7154  2.00566162    12","category":"GPS"},{"name":"COSMOS 1833","line1":"1 17589U 87027A   26097.17624156 -.00000312  00000+0 -14123-3 0  9991","line2":"2 17589  70.9163 266.1408 0022849 171.7148 188.4355 14.13042720 14349","category":"Other"},{"name":"AJISAI (EGS)","line1":"1 16908U 86061A   26097.16330895 -.00000091  00000+0  47313-4 0  9996","line2":"2 16908  50.0122   5.7925 0011391   0.2577 154.9647 12.44515677471549","category":"Other"},{"name":"SL-16 R/B","line1":"1 20625U 90046B   26097.11526741 -.00000066  00000+0 -94456-5 0  9991","line2":"2 20625  70.9992 238.2098 0016617 262.8132  97.1102 14.15019393852416","category":"Other"},{"name":"HJ-2A","line1":"1 46478U 20067A   26097.21359912  .00000641  00000+0  99268-4 0  9998","line2":"2 46478  97.8841 177.2563 0004394 120.6208 239.5435 14.76477980297785","category":"Other"},{"name":"DRAGONFLY","line1":"1 65729U 98067XH  26031.05194254  .08662331  12285-4  96629-3 0  9997","line2":"2 65729  51.6000 237.6139 0006568 265.0285  94.9990 16.36242872 20998","category":"Other"},{"name":"SL-8 R/B","line1":"1 21088U 91006B   26097.16903762  .00000115  00000+0  10067-3 0  9996","line2":"2 21088  82.9429 148.8708 0021307 318.1458  95.8257 13.77499367767994","category":"Other"},{"name":"SL-16 R/B","line1":"1 17590U 87027B   26097.06722604  .00000156  00000+0  10113-3 0  9997","line2":"2 17590  71.0032 216.6927 0002864  69.7740 290.3692 14.17169860 19366","category":"Other"},{"name":"FENGYUN 3F","line1":"1 57490U 23111A   26097.15628204  .00000070  00000+0  53247-4 0  9996","line2":"2 57490  98.6873 168.4758 0000782  89.4123 270.7143 14.19926584138781","category":"Weather"},{"name":"GAOFEN-3 03","line1":"1 52200U 22035A   26097.18665988  .00000173  00000+0  65594-4 0  9999","line2":"2 52200  98.4096 106.7896 0001614  75.3071 284.8297 14.42214451210617","category":"Other"},{"name":"HELIOS 1B","line1":"1 25977U 99064A   26097.16326844  .00001797  00000+0  20311-3 0  9999","line2":"2 25977  98.1659   0.2402 0001326  41.4302 318.7013 14.87819047689492","category":"Other"},{"name":"QMR-KWT-2 (RS95S)","line1":"1 67291U 25313AV  26097.16782068  .00017927  00000+0  73095-3 0  9993","line2":"2 67291  97.3956 173.2093 0008265 238.1973 121.8461 15.24473517 15160","category":"Other"},{"name":"OAO 3 (COPERNICUS)","line1":"1 06153U 72065A   26097.10973948  .00000363  00000+0  78898-4 0  9995","line2":"2 06153  35.0045 135.3896 0006333  28.6170 357.8567 14.60021852850359","category":"Other"},{"name":"1998-067XJ","line1":"1 65730U 98067XJ  25336.82362581  .06330363  11931-4  22859-2 0  9996","line2":"2 65730  51.6061 180.4655 0010114 256.3912 103.5981 16.23931094 11687","category":"Other"},{"name":"SL-14 R/B","line1":"1 11672U 80005B   26096.98233542  .00000679  00000+0  65971-4 0  9992","line2":"2 11672  82.5108 280.3898 0017151  70.9937 289.3139 14.90965729480707","category":"Other"},{"name":"SL-3 R/B","line1":"1 12904U 81103B   26097.18191192  .00005867  00000+0  25736-3 0  9996","line2":"2 12904  81.1602 180.0074 0013255 185.5882 174.5204 15.21733279977566","category":"Other"}]}